{
  "type": "FeatureCollection",
  "features": [
    {
      "type": "Feature",
      "properties": {
        "type": "path_line"
      },
      "geometry": {
        "type": "LineString",
        "coordinates": [
          [
            4.900488304006913,
            47.06368957436977
          ],
          [
            4.900488304014364,
            47.063862425643904
          ],
          [
            4.9011626959858985,
            47.06386242564419
          ],
          [
            4.90116269599335,
            47.06368957436948
          ],
          [
            4.900488304006913,
            47.06368957436977
          ]
        ]
      }
    },
    {
      "type": "Feature",
      "properties": {
        "type": "path_line"
      },
      "geometry": {
        "type": "LineString",
        "coordinates": [
          [
            4.900492912021144,
            47.063692723109156
          ],
          [
            4.900492912042681,
            47.063859276931574
          ],
          [
            4.901158087958102,
            47.06385927693241
          ],
          [
            4.901158087979643,
            47.06369272310831
          ],
          [
            4.900492912021144,
            47.063692723109156
          ]
        ]
      }
    },
    {
      "type": "Feature",
      "properties": {
        "type": "path_line"
      },
      "geometry": {
        "type": "LineString",
        "coordinates": [
          [
            4.901155910663831,
            47.06369272311463
          ],
          [
            4.901158087969864,
            47.063753945100835
          ]
        ]
      }
    },
    {
      "type": "Feature",
      "properties": {
        "type": "path_line"
      },
      "geometry": {
        "type": "LineString",
        "coordinates": [
          [
            4.901151301290428,
            47.063692723127836
          ],
          [
            4.901157224632347,
            47.06385927693492
          ]
        ]
      }
    },
    {
      "type": "Feature",
      "properties": {
        "type": "path_line"
      },
      "geometry": {
        "type": "LineString",
        "coordinates": [
          [
            4.901146691917019,
            47.06369272314087
          ],
          [
            4.901152615244572,
            47.063859276948165
          ]
        ]
      }
    },
    {
      "type": "Feature",
      "properties": {
        "type": "path_line"
      },
      "geometry": {
        "type": "LineString",
        "coordinates": [
          [
            4.901142082543602,
            47.063692723153714
          ],
          [
            4.901148005856794,
            47.06385927696124
          ]
        ]
      }
    },
    {
      "type": "Feature",
      "properties": {
        "type": "path_line"
      },
      "geometry": {
        "type": "LineString",
        "coordinates": [
          [
            4.9011374731701824,
            47.063692723166376
          ],
          [
            4.90114339646901,
            47.06385927697413
          ]
        ]
      }
    },
    {
      "type": "Feature",
      "properties": {
        "type": "path_line"
      },
      "geometry": {
        "type": "LineString",
        "coordinates": [
          [
            4.901132863796757,
            47.063692723178846
          ],
          [
            4.901138787081221,
            47.06385927698684
          ]
        ]
      }
    },
    {
      "type": "Feature",
      "properties": {
        "type": "path_line"
      },
      "geometry": {
        "type": "LineString",
        "coordinates": [
          [
            4.901128254423325,
            47.06369272319114
          ],
          [
            4.901134177693425,
            47.06385927699936
          ]
        ]
      }
    },
    {
      "type": "Feature",
      "properties": {
        "type": "path_line"
      },
      "geometry": {
        "type": "LineString",
        "coordinates": [
          [
            4.901123645049887,
            47.063692723203246
          ],
          [
            4.901129568305624,
            47.06385927701167
          ]
        ]
      }
    },
    {
      "type": "Feature",
      "properties": {
        "type": "path_line"
      },
      "geometry": {
        "type": "LineString",
        "coordinates": [
          [
            4.901119035676444,
            47.06369272321515
          ],
          [
            4.9011249589178165,
            47.06385927702382
          ]
        ]
      }
    },
    {
      "type": "Feature",
      "properties": {
        "type": "path_line"
      },
      "geometry": {
        "type": "LineString",
        "coordinates": [
          [
            4.901114426302996,
            47.06369272322689
          ],
          [
            4.901120349530004,
            47.06385927703578
          ]
        ]
      }
    },
    {
      "type": "Feature",
      "properties": {
        "type": "path_line"
      },
      "geometry": {
        "type": "LineString",
        "coordinates": [
          [
            4.901109816929541,
            47.063692723238454
          ],
          [
            4.901115740142185,
            47.06385927704756
          ]
        ]
      }
    },
    {
      "type": "Feature",
      "properties": {
        "type": "path_line"
      },
      "geometry": {
        "type": "LineString",
        "coordinates": [
          [
            4.901105207556079,
            47.0636927232498
          ],
          [
            4.9011111307543604,
            47.06385927705914
          ]
        ]
      }
    },
    {
      "type": "Feature",
      "properties": {
        "type": "path_line"
      },
      "geometry": {
        "type": "LineString",
        "coordinates": [
          [
            4.901100598182613,
            47.06369272326098
          ],
          [
            4.901106521366531,
            47.06385927707054
          ]
        ]
      }
    },
    {
      "type": "Feature",
      "properties": {
        "type": "path_line"
      },
      "geometry": {
        "type": "LineString",
        "coordinates": [
          [
            4.901095988809142,
            47.06369272327197
          ],
          [
            4.901101911978695,
            47.06385927708177
          ]
        ]
      }
    },
    {
      "type": "Feature",
      "properties": {
        "type": "path_line"
      },
      "geometry": {
        "type": "LineString",
        "coordinates": [
          [
            4.901091379435664,
            47.06369272328278
          ],
          [
            4.901097302590854,
            47.063859277092796
          ]
        ]
      }
    },
    {
      "type": "Feature",
      "properties": {
        "type": "path_line"
      },
      "geometry": {
        "type": "LineString",
        "coordinates": [
          [
            4.9010867700621805,
            47.063692723293386
          ],
          [
            4.901092693203006,
            47.06385927710364
          ]
        ]
      }
    },
    {
      "type": "Feature",
      "properties": {
        "type": "path_line"
      },
      "geometry": {
        "type": "LineString",
        "coordinates": [
          [
            4.901082160688691,
            47.063692723303824
          ],
          [
            4.901088083815154,
            47.063859277114304
          ]
        ]
      }
    },
    {
      "type": "Feature",
      "properties": {
        "type": "path_line"
      },
      "geometry": {
        "type": "LineString",
        "coordinates": [
          [
            4.901077551315196,
            47.06369272331407
          ],
          [
            4.9010834744272955,
            47.06385927712478
          ]
        ]
      }
    },
    {
      "type": "Feature",
      "properties": {
        "type": "path_line"
      },
      "geometry": {
        "type": "LineString",
        "coordinates": [
          [
            4.901072941941695,
            47.06369272332413
          ],
          [
            4.901078865039431,
            47.063859277135066
          ]
        ]
      }
    },
    {
      "type": "Feature",
      "properties": {
        "type": "path_line"
      },
      "geometry": {
        "type": "LineString",
        "coordinates": [
          [
            4.901068332568189,
            47.06369272333401
          ],
          [
            4.901074255651561,
            47.06385927714518
          ]
        ]
      }
    },
    {
      "type": "Feature",
      "properties": {
        "type": "path_line"
      },
      "geometry": {
        "type": "LineString",
        "coordinates": [
          [
            4.901063723194677,
            47.0636927233437
          ],
          [
            4.901069646263685,
            47.06385927715508
          ]
        ]
      }
    },
    {
      "type": "Feature",
      "properties": {
        "type": "path_line"
      },
      "geometry": {
        "type": "LineString",
        "coordinates": [
          [
            4.90105911382116,
            47.06369272335321
          ],
          [
            4.901065036875803,
            47.06385927716483
          ]
        ]
      }
    },
    {
      "type": "Feature",
      "properties": {
        "type": "path_line"
      },
      "geometry": {
        "type": "LineString",
        "coordinates": [
          [
            4.901054504447636,
            47.06369272336253
          ],
          [
            4.901060427487916,
            47.063859277174366
          ]
        ]
      }
    },
    {
      "type": "Feature",
      "properties": {
        "type": "path_line"
      },
      "geometry": {
        "type": "LineString",
        "coordinates": [
          [
            4.901049895074107,
            47.063692723371666
          ],
          [
            4.901055818100024,
            47.06385927718373
          ]
        ]
      }
    },
    {
      "type": "Feature",
      "properties": {
        "type": "path_line"
      },
      "geometry": {
        "type": "LineString",
        "coordinates": [
          [
            4.901045285700572,
            47.06369272338061
          ],
          [
            4.901051208712124,
            47.063859277192904
          ]
        ]
      }
    },
    {
      "type": "Feature",
      "properties": {
        "type": "path_line"
      },
      "geometry": {
        "type": "LineString",
        "coordinates": [
          [
            4.901040676327032,
            47.06369272338937
          ],
          [
            4.90104659932422,
            47.06385927720189
          ]
        ]
      }
    },
    {
      "type": "Feature",
      "properties": {
        "type": "path_line"
      },
      "geometry": {
        "type": "LineString",
        "coordinates": [
          [
            4.901036066953485,
            47.06369272339795
          ],
          [
            4.90104198993631,
            47.06385927721069
          ]
        ]
      }
    },
    {
      "type": "Feature",
      "properties": {
        "type": "path_line"
      },
      "geometry": {
        "type": "LineString",
        "coordinates": [
          [
            4.901031457579933,
            47.06369272340635
          ],
          [
            4.901037380548393,
            47.06385927721932
          ]
        ]
      }
    },
    {
      "type": "Feature",
      "properties": {
        "type": "path_line"
      },
      "geometry": {
        "type": "LineString",
        "coordinates": [
          [
            4.901026848206375,
            47.063692723414555
          ],
          [
            4.901032771160472,
            47.06385927722775
          ]
        ]
      }
    },
    {
      "type": "Feature",
      "properties": {
        "type": "path_line"
      },
      "geometry": {
        "type": "LineString",
        "coordinates": [
          [
            4.9010222388328115,
            47.06369272342257
          ],
          [
            4.901028161772546,
            47.06385927723599
          ]
        ]
      }
    },
    {
      "type": "Feature",
      "properties": {
        "type": "path_line"
      },
      "geometry": {
        "type": "LineString",
        "coordinates": [
          [
            4.901017629459242,
            47.06369272343041
          ],
          [
            4.901023552384612,
            47.06385927724405
          ]
        ]
      }
    },
    {
      "type": "Feature",
      "properties": {
        "type": "path_line"
      },
      "geometry": {
        "type": "LineString",
        "coordinates": [
          [
            4.901013020085667,
            47.06369272343806
          ],
          [
            4.901018942996672,
            47.06385927725193
          ]
        ]
      }
    },
    {
      "type": "Feature",
      "properties": {
        "type": "path_line"
      },
      "geometry": {
        "type": "LineString",
        "coordinates": [
          [
            4.901008410712087,
            47.06369272344551
          ],
          [
            4.901014333608729,
            47.06385927725963
          ]
        ]
      }
    },
    {
      "type": "Feature",
      "properties": {
        "type": "path_line"
      },
      "geometry": {
        "type": "LineString",
        "coordinates": [
          [
            4.9010038013385,
            47.06369272345279
          ],
          [
            4.901009724220778,
            47.06385927726712
          ]
        ]
      }
    },
    {
      "type": "Feature",
      "properties": {
        "type": "path_line"
      },
      "geometry": {
        "type": "LineString",
        "coordinates": [
          [
            4.9009991919649085,
            47.06369272345989
          ],
          [
            4.901005114832823,
            47.06385927727446
          ]
        ]
      }
    },
    {
      "type": "Feature",
      "properties": {
        "type": "path_line"
      },
      "geometry": {
        "type": "LineString",
        "coordinates": [
          [
            4.90099458259131,
            47.06369272346679
          ],
          [
            4.90100050544486,
            47.06385927728158
          ]
        ]
      }
    },
    {
      "type": "Feature",
      "properties": {
        "type": "path_line"
      },
      "geometry": {
        "type": "LineString",
        "coordinates": [
          [
            4.900989973217706,
            47.063692723473515
          ],
          [
            4.900995896056894,
            47.06385927728854
          ]
        ]
      }
    },
    {
      "type": "Feature",
      "properties": {
        "type": "path_line"
      },
      "geometry": {
        "type": "LineString",
        "coordinates": [
          [
            4.9009853638440966,
            47.063692723480045
          ],
          [
            4.90099128666892,
            47.06385927729529
          ]
        ]
      }
    },
    {
      "type": "Feature",
      "properties": {
        "type": "path_line"
      },
      "geometry": {
        "type": "LineString",
        "coordinates": [
          [
            4.900980754470482,
            47.063692723486405
          ],
          [
            4.900986677280941,
            47.06385927730187
          ]
        ]
      }
    },
    {
      "type": "Feature",
      "properties": {
        "type": "path_line"
      },
      "geometry": {
        "type": "LineString",
        "coordinates": [
          [
            4.90097614509686,
            47.06369272349256
          ],
          [
            4.900982067892957,
            47.06385927730827
          ]
        ]
      }
    },
    {
      "type": "Feature",
      "properties": {
        "type": "path_line"
      },
      "geometry": {
        "type": "LineString",
        "coordinates": [
          [
            4.900971535723234,
            47.06369272349855
          ],
          [
            4.900977458504966,
            47.06385927731448
          ]
        ]
      }
    },
    {
      "type": "Feature",
      "properties": {
        "type": "path_line"
      },
      "geometry": {
        "type": "LineString",
        "coordinates": [
          [
            4.900966926349602,
            47.06369272350434
          ],
          [
            4.90097284911697,
            47.06385927732049
          ]
        ]
      }
    },
    {
      "type": "Feature",
      "properties": {
        "type": "path_line"
      },
      "geometry": {
        "type": "LineString",
        "coordinates": [
          [
            4.9009623169759635,
            47.06369272350994
          ],
          [
            4.900968239728969,
            47.06385927732632
          ]
        ]
      }
    },
    {
      "type": "Feature",
      "properties": {
        "type": "path_line"
      },
      "geometry": {
        "type": "LineString",
        "coordinates": [
          [
            4.90095770760232,
            47.063692723515366
          ],
          [
            4.900963630340962,
            47.063859277331964
          ]
        ]
      }
    },
    {
      "type": "Feature",
      "properties": {
        "type": "path_line"
      },
      "geometry": {
        "type": "LineString",
        "coordinates": [
          [
            4.90095309822867,
            47.0636927235206
          ],
          [
            4.900959020952947,
            47.063859277337436
          ]
        ]
      }
    },
    {
      "type": "Feature",
      "properties": {
        "type": "path_line"
      },
      "geometry": {
        "type": "LineString",
        "coordinates": [
          [
            4.900948488855015,
            47.063692723525655
          ],
          [
            4.900954411564928,
            47.063859277342715
          ]
        ]
      }
    },
    {
      "type": "Feature",
      "properties": {
        "type": "path_line"
      },
      "geometry": {
        "type": "LineString",
        "coordinates": [
          [
            4.900943879481354,
            47.06369272353052
          ],
          [
            4.900949802176903,
            47.0638592773478
          ]
        ]
      }
    },
    {
      "type": "Feature",
      "properties": {
        "type": "path_line"
      },
      "geometry": {
        "type": "LineString",
        "coordinates": [
          [
            4.9009392701076875,
            47.063692723535205
          ],
          [
            4.900945192788874,
            47.06385927735273
          ]
        ]
      }
    },
    {
      "type": "Feature",
      "properties": {
        "type": "path_line"
      },
      "geometry": {
        "type": "LineString",
        "coordinates": [
          [
            4.900934660734015,
            47.063692723539695
          ],
          [
            4.900940583400837,
            47.06385927735743
          ]
        ]
      }
    },
    {
      "type": "Feature",
      "properties": {
        "type": "path_line"
      },
      "geometry": {
        "type": "LineString",
        "coordinates": [
          [
            4.900930051360337,
            47.063692723544
          ],
          [
            4.900935974012795,
            47.06385927736196
          ]
        ]
      }
    },
    {
      "type": "Feature",
      "properties": {
        "type": "path_line"
      },
      "geometry": {
        "type": "LineString",
        "coordinates": [
          [
            4.9009254419866535,
            47.06369272354812
          ],
          [
            4.900931364624748,
            47.063859277366326
          ]
        ]
      }
    },
    {
      "type": "Feature",
      "properties": {
        "type": "path_line"
      },
      "geometry": {
        "type": "LineString",
        "coordinates": [
          [
            4.900920832612964,
            47.063692723552066
          ],
          [
            4.9009267552366955,
            47.06385927737049
          ]
        ]
      }
    },
    {
      "type": "Feature",
      "properties": {
        "type": "path_line"
      },
      "geometry": {
        "type": "LineString",
        "coordinates": [
          [
            4.9009162232392685,
            47.06369272355582
          ],
          [
            4.900922145848636,
            47.06385927737447
          ]
        ]
      }
    },
    {
      "type": "Feature",
      "properties": {
        "type": "path_line"
      },
      "geometry": {
        "type": "LineString",
        "coordinates": [
          [
            4.900911613865566,
            47.06369272355938
          ],
          [
            4.900917536460571,
            47.06385927737825
          ]
        ]
      }
    },
    {
      "type": "Feature",
      "properties": {
        "type": "path_line"
      },
      "geometry": {
        "type": "LineString",
        "coordinates": [
          [
            4.90090700449186,
            47.06369272356276
          ],
          [
            4.9009129270725,
            47.06385927738186
          ]
        ]
      }
    },
    {
      "type": "Feature",
      "properties": {
        "type": "path_line"
      },
      "geometry": {
        "type": "LineString",
        "coordinates": [
          [
            4.900902395118148,
            47.06369272356596
          ],
          [
            4.900908317684424,
            47.06385927738528
          ]
        ]
      }
    },
    {
      "type": "Feature",
      "properties": {
        "type": "path_line"
      },
      "geometry": {
        "type": "LineString",
        "coordinates": [
          [
            4.90089778574443,
            47.06369272356896
          ],
          [
            4.900903708296342,
            47.06385927738852
          ]
        ]
      }
    },
    {
      "type": "Feature",
      "properties": {
        "type": "path_line"
      },
      "geometry": {
        "type": "LineString",
        "coordinates": [
          [
            4.900893176370706,
            47.06369272357178
          ],
          [
            4.900899098908254,
            47.063859277391565
          ]
        ]
      }
    },
    {
      "type": "Feature",
      "properties": {
        "type": "path_line"
      },
      "geometry": {
        "type": "LineString",
        "coordinates": [
          [
            4.900888566996976,
            47.06369272357444
          ],
          [
            4.9008944895201605,
            47.063859277394435
          ]
        ]
      }
    },
    {
      "type": "Feature",
      "properties": {
        "type": "path_line"
      },
      "geometry": {
        "type": "LineString",
        "coordinates": [
          [
            4.900883957623241,
            47.06369272357688
          ],
          [
            4.900889880132062,
            47.063859277397114
          ]
        ]
      }
    },
    {
      "type": "Feature",
      "properties": {
        "type": "path_line"
      },
      "geometry": {
        "type": "LineString",
        "coordinates": [
          [
            4.9008793482495,
            47.06369272357915
          ],
          [
            4.900885270743957,
            47.06385927739961
          ]
        ]
      }
    },
    {
      "type": "Feature",
      "properties": {
        "type": "path_line"
      },
      "geometry": {
        "type": "LineString",
        "coordinates": [
          [
            4.9008747388757525,
            47.06369272358124
          ],
          [
            4.9008806613558455,
            47.06385927740191
          ]
        ]
      }
    },
    {
      "type": "Feature",
      "properties": {
        "type": "path_line"
      },
      "geometry": {
        "type": "LineString",
        "coordinates": [
          [
            4.9008701295020005,
            47.06369272358313
          ],
          [
            4.90087605196773,
            47.063859277404035
          ]
        ]
      }
    },
    {
      "type": "Feature",
      "properties": {
        "type": "path_line"
      },
      "geometry": {
        "type": "LineString",
        "coordinates": [
          [
            4.900865520128241,
            47.063692723584836
          ],
          [
            4.900871442579608,
            47.06385927740598
          ]
        ]
      }
    },
    {
      "type": "Feature",
      "properties": {
        "type": "path_line"
      },
      "geometry": {
        "type": "LineString",
        "coordinates": [
          [
            4.900860910754479,
            47.063692723586364
          ],
          [
            4.900866833191481,
            47.06385927740773
          ]
        ]
      }
    },
    {
      "type": "Feature",
      "properties": {
        "type": "path_line"
      },
      "geometry": {
        "type": "LineString",
        "coordinates": [
          [
            4.900856301380708,
            47.0636927235877
          ],
          [
            4.900862223803346,
            47.06385927740929
          ]
        ]
      }
    },
    {
      "type": "Feature",
      "properties": {
        "type": "path_line"
      },
      "geometry": {
        "type": "LineString",
        "coordinates": [
          [
            4.900851692006933,
            47.063692723588844
          ],
          [
            4.900857614415207,
            47.06385927741068
          ]
        ]
      }
    },
    {
      "type": "Feature",
      "properties": {
        "type": "path_line"
      },
      "geometry": {
        "type": "LineString",
        "coordinates": [
          [
            4.900847082633152,
            47.06369272358982
          ],
          [
            4.900853005027063,
            47.06385927741187
          ]
        ]
      }
    },
    {
      "type": "Feature",
      "properties": {
        "type": "path_line"
      },
      "geometry": {
        "type": "LineString",
        "coordinates": [
          [
            4.900842473259365,
            47.063692723590606
          ],
          [
            4.900848395638912,
            47.063859277412874
          ]
        ]
      }
    },
    {
      "type": "Feature",
      "properties": {
        "type": "path_line"
      },
      "geometry": {
        "type": "LineString",
        "coordinates": [
          [
            4.900837863885572,
            47.0636927235912
          ],
          [
            4.900843786250755,
            47.0638592774137
          ]
        ]
      }
    },
    {
      "type": "Feature",
      "properties": {
        "type": "path_line"
      },
      "geometry": {
        "type": "LineString",
        "coordinates": [
          [
            4.900833254511775,
            47.06369272359161
          ],
          [
            4.900839176862593,
            47.06385927741434
          ]
        ]
      }
    },
    {
      "type": "Feature",
      "properties": {
        "type": "path_line"
      },
      "geometry": {
        "type": "LineString",
        "coordinates": [
          [
            4.90082864513797,
            47.06369272359183
          ],
          [
            4.900834567474425,
            47.06385927741479
          ]
        ]
      }
    },
    {
      "type": "Feature",
      "properties": {
        "type": "path_line"
      },
      "geometry": {
        "type": "LineString",
        "coordinates": [
          [
            4.90082403576416,
            47.06369272359188
          ],
          [
            4.900829958086251,
            47.06385927741504
          ]
        ]
      }
    },
    {
      "type": "Feature",
      "properties": {
        "type": "path_line"
      },
      "geometry": {
        "type": "LineString",
        "coordinates": [
          [
            4.900819426390345,
            47.06369272359173
          ],
          [
            4.900825348698072,
            47.06385927741513
          ]
        ]
      }
    },
    {
      "type": "Feature",
      "properties": {
        "type": "path_line"
      },
      "geometry": {
        "type": "LineString",
        "coordinates": [
          [
            4.900814817016524,
            47.0636927235914
          ],
          [
            4.900820739309887,
            47.06385927741503
          ]
        ]
      }
    },
    {
      "type": "Feature",
      "properties": {
        "type": "path_line"
      },
      "geometry": {
        "type": "LineString",
        "coordinates": [
          [
            4.900810207642697,
            47.06369272359088
          ],
          [
            4.900816129921697,
            47.063859277414736
          ]
        ]
      }
    },
    {
      "type": "Feature",
      "properties": {
        "type": "path_line"
      },
      "geometry": {
        "type": "LineString",
        "coordinates": [
          [
            4.900805598268864,
            47.06369272359018
          ],
          [
            4.900811520533501,
            47.06385927741426
          ]
        ]
      }
    },
    {
      "type": "Feature",
      "properties": {
        "type": "path_line"
      },
      "geometry": {
        "type": "LineString",
        "coordinates": [
          [
            4.900800988895025,
            47.063692723589284
          ],
          [
            4.900806911145297,
            47.06385927741359
          ]
        ]
      }
    },
    {
      "type": "Feature",
      "properties": {
        "type": "path_line"
      },
      "geometry": {
        "type": "LineString",
        "coordinates": [
          [
            4.900796379521181,
            47.06369272358822
          ],
          [
            4.90080230175709,
            47.06385927741275
          ]
        ]
      }
    },
    {
      "type": "Feature",
      "properties": {
        "type": "path_line"
      },
      "geometry": {
        "type": "LineString",
        "coordinates": [
          [
            4.900791770147332,
            47.06369272358696
          ],
          [
            4.900797692368877,
            47.06385927741173
          ]
        ]
      }
    },
    {
      "type": "Feature",
      "properties": {
        "type": "path_line"
      },
      "geometry": {
        "type": "LineString",
        "coordinates": [
          [
            4.900787160773476,
            47.063692723585504
          ],
          [
            4.900793082980657,
            47.06385927741051
          ]
        ]
      }
    },
    {
      "type": "Feature",
      "properties": {
        "type": "path_line"
      },
      "geometry": {
        "type": "LineString",
        "coordinates": [
          [
            4.900782551399614,
            47.06369272358388
          ],
          [
            4.900788473592431,
            47.063859277409094
          ]
        ]
      }
    },
    {
      "type": "Feature",
      "properties": {
        "type": "path_line"
      },
      "geometry": {
        "type": "LineString",
        "coordinates": [
          [
            4.900777942025747,
            47.06369272358207
          ],
          [
            4.900783864204201,
            47.0638592774075
          ]
        ]
      }
    },
    {
      "type": "Feature",
      "properties": {
        "type": "path_line"
      },
      "geometry": {
        "type": "LineString",
        "coordinates": [
          [
            4.900773332651874,
            47.063692723580054
          ],
          [
            4.900779254815966,
            47.06385927740574
          ]
        ]
      }
    },
    {
      "type": "Feature",
      "properties": {
        "type": "path_line"
      },
      "geometry": {
        "type": "LineString",
        "coordinates": [
          [
            4.900768723277995,
            47.063692723577866
          ],
          [
            4.900774645427723,
            47.06385927740378
          ]
        ]
      }
    },
    {
      "type": "Feature",
      "properties": {
        "type": "path_line"
      },
      "geometry": {
        "type": "LineString",
        "coordinates": [
          [
            4.9007641139041125,
            47.0636927235755
          ],
          [
            4.900770036039475,
            47.063859277401626
          ]
        ]
      }
    },
    {
      "type": "Feature",
      "properties": {
        "type": "path_line"
      },
      "geometry": {
        "type": "LineString",
        "coordinates": [
          [
            4.900759504530222,
            47.06369272357294
          ],
          [
            4.900765426651221,
            47.063859277399295
          ]
        ]
      }
    },
    {
      "type": "Feature",
      "properties": {
        "type": "path_line"
      },
      "geometry": {
        "type": "LineString",
        "coordinates": [
          [
            4.900754895156327,
            47.0636927235702
          ],
          [
            4.900760817262961,
            47.06385927739677
          ]
        ]
      }
    },
    {
      "type": "Feature",
      "properties": {
        "type": "path_line"
      },
      "geometry": {
        "type": "LineString",
        "coordinates": [
          [
            4.900750285782426,
            47.06369272356728
          ],
          [
            4.9007562078746965,
            47.06385927739407
          ]
        ]
      }
    },
    {
      "type": "Feature",
      "properties": {
        "type": "path_line"
      },
      "geometry": {
        "type": "LineString",
        "coordinates": [
          [
            4.900745676408517,
            47.06369272356415
          ],
          [
            4.900751598486425,
            47.063859277391195
          ]
        ]
      }
    },
    {
      "type": "Feature",
      "properties": {
        "type": "path_line"
      },
      "geometry": {
        "type": "LineString",
        "coordinates": [
          [
            4.9007410670346045,
            47.06369272356085
          ],
          [
            4.900746989098148,
            47.06385927738811
          ]
        ]
      }
    },
    {
      "type": "Feature",
      "properties": {
        "type": "path_line"
      },
      "geometry": {
        "type": "LineString",
        "coordinates": [
          [
            4.900736457660686,
            47.06369272355737
          ],
          [
            4.9007423797098655,
            47.06385927738486
          ]
        ]
      }
    },
    {
      "type": "Feature",
      "properties": {
        "type": "path_line"
      },
      "geometry": {
        "type": "LineString",
        "coordinates": [
          [
            4.900731848286763,
            47.06369272355369
          ],
          [
            4.9007377703215775,
            47.0638592773814
          ]
        ]
      }
    },
    {
      "type": "Feature",
      "properties": {
        "type": "path_line"
      },
      "geometry": {
        "type": "LineString",
        "coordinates": [
          [
            4.9007272389128325,
            47.063692723549835
          ],
          [
            4.900733160933285,
            47.06385927737779
          ]
        ]
      }
    },
    {
      "type": "Feature",
      "properties": {
        "type": "path_line"
      },
      "geometry": {
        "type": "LineString",
        "coordinates": [
          [
            4.900722629538897,
            47.06369272354579
          ],
          [
            4.900728551544985,
            47.06385927737396
          ]
        ]
      }
    },
    {
      "type": "Feature",
      "properties": {
        "type": "path_line"
      },
      "geometry": {
        "type": "LineString",
        "coordinates": [
          [
            4.9007180201649545,
            47.063692723541564
          ],
          [
            4.900723942156679,
            47.06385927736996
          ]
        ]
      }
    },
    {
      "type": "Feature",
      "properties": {
        "type": "path_line"
      },
      "geometry": {
        "type": "LineString",
        "coordinates": [
          [
            4.900713410791008,
            47.06369272353715
          ],
          [
            4.900719332768368,
            47.063859277365765
          ]
        ]
      }
    },
    {
      "type": "Feature",
      "properties": {
        "type": "path_line"
      },
      "geometry": {
        "type": "LineString",
        "coordinates": [
          [
            4.900708801417054,
            47.06369272353255
          ],
          [
            4.9007147233800525,
            47.063859277361395
          ]
        ]
      }
    },
    {
      "type": "Feature",
      "properties": {
        "type": "path_line"
      },
      "geometry": {
        "type": "LineString",
        "coordinates": [
          [
            4.900704192043096,
            47.06369272352775
          ],
          [
            4.90071011399173,
            47.06385927735683
          ]
        ]
      }
    },
    {
      "type": "Feature",
      "properties": {
        "type": "path_line"
      },
      "geometry": {
        "type": "LineString",
        "coordinates": [
          [
            4.900699582669132,
            47.063692723522784
          ],
          [
            4.900705504603401,
            47.063859277352094
          ]
        ]
      }
    },
    {
      "type": "Feature",
      "properties": {
        "type": "path_line"
      },
      "geometry": {
        "type": "LineString",
        "coordinates": [
          [
            4.9006949732951615,
            47.06369272351763
          ],
          [
            4.900700895215067,
            47.06385927734715
          ]
        ]
      }
    },
    {
      "type": "Feature",
      "properties": {
        "type": "path_line"
      },
      "geometry": {
        "type": "LineString",
        "coordinates": [
          [
            4.9006903639211865,
            47.06369272351229
          ],
          [
            4.900696285826729,
            47.06385927734205
          ]
        ]
      }
    },
    {
      "type": "Feature",
      "properties": {
        "type": "path_line"
      },
      "geometry": {
        "type": "LineString",
        "coordinates": [
          [
            4.9006857545472045,
            47.06369272350676
          ],
          [
            4.900691676438383,
            47.06385927733675
          ]
        ]
      }
    },
    {
      "type": "Feature",
      "properties": {
        "type": "path_line"
      },
      "geometry": {
        "type": "LineString",
        "coordinates": [
          [
            4.900681145173216,
            47.06369272350104
          ],
          [
            4.900687067050031,
            47.06385927733125
          ]
        ]
      }
    },
    {
      "type": "Feature",
      "properties": {
        "type": "path_line"
      },
      "geometry": {
        "type": "LineString",
        "coordinates": [
          [
            4.9006765357992235,
            47.063692723495144
          ],
          [
            4.9006824576616745,
            47.063859277325584
          ]
        ]
      }
    },
    {
      "type": "Feature",
      "properties": {
        "type": "path_line"
      },
      "geometry": {
        "type": "LineString",
        "coordinates": [
          [
            4.900671926425225,
            47.06369272348906
          ],
          [
            4.900677848273312,
            47.063859277319715
          ]
        ]
      }
    },
    {
      "type": "Feature",
      "properties": {
        "type": "path_line"
      },
      "geometry": {
        "type": "LineString",
        "coordinates": [
          [
            4.900667317051222,
            47.0636927234828
          ],
          [
            4.900673238884945,
            47.06385927731368
          ]
        ]
      }
    },
    {
      "type": "Feature",
      "properties": {
        "type": "path_line"
      },
      "geometry": {
        "type": "LineString",
        "coordinates": [
          [
            4.900662707677212,
            47.063692723476336
          ],
          [
            4.900668629496571,
            47.06385927730745
          ]
        ]
      }
    },
    {
      "type": "Feature",
      "properties": {
        "type": "path_line"
      },
      "geometry": {
        "type": "LineString",
        "coordinates": [
          [
            4.900658098303195,
            47.06369272346969
          ],
          [
            4.900664020108191,
            47.06385927730105
          ]
        ]
      }
    },
    {
      "type": "Feature",
      "properties": {
        "type": "path_line"
      },
      "geometry": {
        "type": "LineString",
        "coordinates": [
          [
            4.900653488929173,
            47.063692723462864
          ],
          [
            4.900659410719806,
            47.06385927729443
          ]
        ]
      }
    },
    {
      "type": "Feature",
      "properties": {
        "type": "path_line"
      },
      "geometry": {
        "type": "LineString",
        "coordinates": [
          [
            4.900648879555146,
            47.06369272345586
          ],
          [
            4.900654801331415,
            47.06385927728765
          ]
        ]
      }
    },
    {
      "type": "Feature",
      "properties": {
        "type": "path_line"
      },
      "geometry": {
        "type": "LineString",
        "coordinates": [
          [
            4.900644270181113,
            47.06369272344864
          ],
          [
            4.900650191943017,
            47.06385927728066
          ]
        ]
      }
    },
    {
      "type": "Feature",
      "properties": {
        "type": "path_line"
      },
      "geometry": {
        "type": "LineString",
        "coordinates": [
          [
            4.900639660807075,
            47.06369272344128
          ],
          [
            4.900645582554615,
            47.06385927727353
          ]
        ]
      }
    },
    {
      "type": "Feature",
      "properties": {
        "type": "path_line"
      },
      "geometry": {
        "type": "LineString",
        "coordinates": [
          [
            4.90063505143303,
            47.0636927234337
          ],
          [
            4.9006409731662055,
            47.06385927726617
          ]
        ]
      }
    },
    {
      "type": "Feature",
      "properties": {
        "type": "path_line"
      },
      "geometry": {
        "type": "LineString",
        "coordinates": [
          [
            4.90063044205898,
            47.06369272342594
          ],
          [
            4.900636363777792,
            47.06385927725864
          ]
        ]
      }
    },
    {
      "type": "Feature",
      "properties": {
        "type": "path_line"
      },
      "geometry": {
        "type": "LineString",
        "coordinates": [
          [
            4.900625832684924,
            47.06369272341801
          ],
          [
            4.900631754389374,
            47.06385927725093
          ]
        ]
      }
    },
    {
      "type": "Feature",
      "properties": {
        "type": "path_line"
      },
      "geometry": {
        "type": "LineString",
        "coordinates": [
          [
            4.900621223310862,
            47.06369272340988
          ],
          [
            4.900627145000947,
            47.06385927724303
          ]
        ]
      }
    },
    {
      "type": "Feature",
      "properties": {
        "type": "path_line"
      },
      "geometry": {
        "type": "LineString",
        "coordinates": [
          [
            4.900616613936794,
            47.06369272340157
          ],
          [
            4.900622535612516,
            47.06385927723495
          ]
        ]
      }
    },
    {
      "type": "Feature",
      "properties": {
        "type": "path_line"
      },
      "geometry": {
        "type": "LineString",
        "coordinates": [
          [
            4.900612004562722,
            47.06369272339306
          ],
          [
            4.900617926224079,
            47.06385927722667
          ]
        ]
      }
    },
    {
      "type": "Feature",
      "properties": {
        "type": "path_line"
      },
      "geometry": {
        "type": "LineString",
        "coordinates": [
          [
            4.9006073951886435,
            47.063692723384385
          ],
          [
            4.900613316835637,
            47.06385927721822
          ]
        ]
      }
    },
    {
      "type": "Feature",
      "properties": {
        "type": "path_line"
      },
      "geometry": {
        "type": "LineString",
        "coordinates": [
          [
            4.900602785814558,
            47.06369272337552
          ],
          [
            4.900608707447189,
            47.06385927720958
          ]
        ]
      }
    },
    {
      "type": "Feature",
      "properties": {
        "type": "path_line"
      },
      "geometry": {
        "type": "LineString",
        "coordinates": [
          [
            4.900598176440468,
            47.06369272336646
          ],
          [
            4.900604098058736,
            47.063859277200756
          ]
        ]
      }
    },
    {
      "type": "Feature",
      "properties": {
        "type": "path_line"
      },
      "geometry": {
        "type": "LineString",
        "coordinates": [
          [
            4.900593567066372,
            47.063692723357214
          ],
          [
            4.900599488670275,
            47.06385927719173
          ]
        ]
      }
    },
    {
      "type": "Feature",
      "properties": {
        "type": "path_line"
      },
      "geometry": {
        "type": "LineString",
        "coordinates": [
          [
            4.90058895769227,
            47.06369272334779
          ],
          [
            4.90059487928181,
            47.06385927718253
          ]
        ]
      }
    },
    {
      "type": "Feature",
      "properties": {
        "type": "path_line"
      },
      "geometry": {
        "type": "LineString",
        "coordinates": [
          [
            4.900584348318163,
            47.06369272333818
          ],
          [
            4.900590269893339,
            47.06385927717315
          ]
        ]
      }
    },
    {
      "type": "Feature",
      "properties": {
        "type": "path_line"
      },
      "geometry": {
        "type": "LineString",
        "coordinates": [
          [
            4.9005797389440495,
            47.06369272332839
          ],
          [
            4.900585660504862,
            47.06385927716357
          ]
        ]
      }
    },
    {
      "type": "Feature",
      "properties": {
        "type": "path_line"
      },
      "geometry": {
        "type": "LineString",
        "coordinates": [
          [
            4.900575129569931,
            47.06369272331839
          ],
          [
            4.9005810511163785,
            47.0638592771538
          ]
        ]
      }
    },
    {
      "type": "Feature",
      "properties": {
        "type": "path_line"
      },
      "geometry": {
        "type": "LineString",
        "coordinates": [
          [
            4.9005705201958065,
            47.063692723308236
          ],
          [
            4.90057644172789,
            47.063859277143884
          ]
        ]
      }
    },
    {
      "type": "Feature",
      "properties": {
        "type": "path_line"
      },
      "geometry": {
        "type": "LineString",
        "coordinates": [
          [
            4.900565910821675,
            47.06369272329787
          ],
          [
            4.900571832339396,
            47.06385927713376
          ]
        ]
      }
    },
    {
      "type": "Feature",
      "properties": {
        "type": "path_line"
      },
      "geometry": {
        "type": "LineString",
        "coordinates": [
          [
            4.9005613014475395,
            47.06369272328733
          ],
          [
            4.900567222950896,
            47.06385927712344
          ]
        ]
      }
    },
    {
      "type": "Feature",
      "properties": {
        "type": "path_line"
      },
      "geometry": {
        "type": "LineString",
        "coordinates": [
          [
            4.9005566920733985,
            47.06369272327662
          ],
          [
            4.900562613562391,
            47.06385927711294
          ]
        ]
      }
    },
    {
      "type": "Feature",
      "properties": {
        "type": "path_line"
      },
      "geometry": {
        "type": "LineString",
        "coordinates": [
          [
            4.90055208269925,
            47.0636927232657
          ],
          [
            4.900558004173879,
            47.06385927710225
          ]
        ]
      }
    },
    {
      "type": "Feature",
      "properties": {
        "type": "path_line"
      },
      "geometry": {
        "type": "LineString",
        "coordinates": [
          [
            4.900547473325098,
            47.0636927232546
          ],
          [
            4.900553394785363,
            47.06385927709139
          ]
        ]
      }
    },
    {
      "type": "Feature",
      "properties": {
        "type": "path_line"
      },
      "geometry": {
        "type": "LineString",
        "coordinates": [
          [
            4.900542863950939,
            47.06369272324332
          ],
          [
            4.900548785396841,
            47.06385927708033
          ]
        ]
      }
    },
    {
      "type": "Feature",
      "properties": {
        "type": "path_line"
      },
      "geometry": {
        "type": "LineString",
        "coordinates": [
          [
            4.900538254576774,
            47.06369272323186
          ],
          [
            4.900544176008311,
            47.063859277069085
          ]
        ]
      }
    },
    {
      "type": "Feature",
      "properties": {
        "type": "path_line"
      },
      "geometry": {
        "type": "LineString",
        "coordinates": [
          [
            4.900533645202604,
            47.06369272322019
          ],
          [
            4.900539566619777,
            47.06385927705766
          ]
        ]
      }
    },
    {
      "type": "Feature",
      "properties": {
        "type": "path_line"
      },
      "geometry": {
        "type": "LineString",
        "coordinates": [
          [
            4.900529035828428,
            47.063692723208355
          ],
          [
            4.900534957231238,
            47.063859277046056
          ]
        ]
      }
    },
    {
      "type": "Feature",
      "properties": {
        "type": "path_line"
      },
      "geometry": {
        "type": "LineString",
        "coordinates": [
          [
            4.900524426454246,
            47.06369272319634
          ],
          [
            4.900530347842691,
            47.06385927703425
          ]
        ]
      }
    },
    {
      "type": "Feature",
      "properties": {
        "type": "path_line"
      },
      "geometry": {
        "type": "LineString",
        "coordinates": [
          [
            4.900519817080057,
            47.06369272318412
          ],
          [
            4.9005257384541405,
            47.06385927702227
          ]
        ]
      }
    },
    {
      "type": "Feature",
      "properties": {
        "type": "path_line"
      },
      "geometry": {
        "type": "LineString",
        "coordinates": [
          [
            4.9005152077058645,
            47.06369272317173
          ],
          [
            4.9005211290655835,
            47.063859277010096
          ]
        ]
      }
    },
    {
      "type": "Feature",
      "properties": {
        "type": "path_line"
      },
      "geometry": {
        "type": "LineString",
        "coordinates": [
          [
            4.900510598331666,
            47.06369272315915
          ],
          [
            4.900516519677021,
            47.063859276997746
          ]
        ]
      }
    },
    {
      "type": "Feature",
      "properties": {
        "type": "path_line"
      },
      "geometry": {
        "type": "LineString",
        "coordinates": [
          [
            4.900505988957461,
            47.06369272314638
          ],
          [
            4.900511910288453,
            47.06385927698521
          ]
        ]
      }
    },
    {
      "type": "Feature",
      "properties": {
        "type": "path_line"
      },
      "geometry": {
        "type": "LineString",
        "coordinates": [
          [
            4.90050137958325,
            47.06369272313343
          ],
          [
            4.900507300899878,
            47.06385927697247
          ]
        ]
      }
    },
    {
      "type": "Feature",
      "properties": {
        "type": "path_line"
      },
      "geometry": {
        "type": "LineString",
        "coordinates": [
          [
            4.900496770209036,
            47.06369272312029
          ],
          [
            4.900502691511298,
            47.063859276959576
          ]
        ]
      }
    },
    {
      "type": "Feature",
      "properties": {
        "type": "path_line"
      },
      "geometry": {
        "type": "LineString",
        "coordinates": [
          [
            4.900492912022989,
            47.06371385259212
          ],
          [
            4.900498082122711,
            47.063859276946474
          ]
        ]
      }
    },
    {
      "type": "Feature",
      "properties": {
        "type": "path_line"
      },
      "geometry": {
        "type": "LineString",
        "coordinates": [
          [
            4.900492912039956,
            47.06384350576734
          ],
          [
            4.90049347273412,
            47.06385927693319
          ]
        ]
      }
    }
  ]
}