{
  "features": [
    {
      "geometry": {
        "coordinates": [
          [
            [
              4.900486,
              47.063688
            ],
            [
              4.900486,
              47.063864
            ],
            [
              4.901165,
              47.063864
            ],
            [
              4.901165,
              47.063688
            ],
            [
              4.900486,
              47.063688
            ]
          ]
        ],
        "type": "Polygon"
      },
      "properties": {
        "created_at": "2026-08-22T16:15:54.186Z",
        "name": "Trac\u00e9 manuel (Rectangle)",
        "type": "manual"
      },
      "type": "Feature"
    },
    {
      "type": "Feature",
      "properties": {
        "name": "Trac\u00e9 manuel (Rectangle)",
        "type": "manual",
        "created_at": "2026-08-22T16:44:40.610Z"
      },
      "geometry": {
        "type": "Polygon",
        "coordinates": [
          [
            [
              4.900301,
              47.06395
            ],
            [
              4.900301,
              47.064134
            ],
            [
              4.900687,
              47.064134
            ],
            [
              4.900687,
              47.06395
            ],
            [
              4.900301,
              47.06395
            ]
          ]
        ]
      }
    }
  ],
  "type": "FeatureCollection"
}